[{"OBJECT_NAME":"STARLINK-34324","OBJECT_ID":"2025-117E","EPOCH":"2026-03-09T22:15:51.957216","MEAN_MOTION":15.30218329,"ECCENTRICITY":0.0001408,"INCLINATION":53.1605,"RA_OF_ASC_NODE":38.3938,"ARG_OF_PERICENTER":96.8997,"MEAN_ANOMALY":263.2164,"EPHEMERIS_TYPE":0,"CLASSIFICATION_TYPE":"U","NORAD_CAT_ID":64207,"ELEMENT_SET_NO":999,"REV_AT_EPOCH":4353,"BSTAR":0.0012951374,"MEAN_MOTION_DOT":0.00038218,"MEAN_MOTION_DDOT":0},{"OBJECT_NAME":"OBJECT N","OBJECT_ID":"2019-093N","EPOCH":"2026-03-09T21:41:56.087232","MEAN_MOTION":15.29897693,"ECCENTRICITY":0.0006278,"INCLINATION":98.0505,"RA_OF_ASC_NODE":226.9456,"ARG_OF_PERICENTER":33.3806,"MEAN_ANOMALY":326.7828,"EPHEMERIS_TYPE":0,"CLASSIFICATION_TYPE":"U","NORAD_CAT_ID":44891,"ELEMENT_SET_NO":999,"REV_AT_EPOCH":33957,"BSTAR":0.0010567776,"MEAN_MOTION_DOT":0.00030617,"MEAN_MOTION_DDOT":0}]
